{"type": "FeatureCollection", "features": [ {"type": "Feature", "properties": {"norad_id": 51444, "name": "CSG-2", "group": "resource", "lat": 31.13707422737716, "lon": -3.036995875479823, "alt_km": 620.3562429374033, "timestamp": "2025-12-16T21:38:56.827584+00:00", "meta": {"OBJECT_NAME": "CSG-2", "OBJECT_ID": "2022-008A", "EPOCH": "2025-12-16T14:30:02.525760", "MEAN_MOTION": 14.82147873, "ECCENTRICITY": 0.000145, "INCLINATION": 97.8811, "RA_OF_ASC_NODE": 171.8695, "ARG_OF_PERICENTER": 89.7047, "MEAN_ANOMALY": 270.4333, "EPHEMERIS_TYPE": 0, "CLASSIFICATION_TYPE": "U", "NORAD_CAT_ID": 51444, "ELEMENT_SET_NO": 999, "REV_AT_EPOCH": 20954, "BSTAR": 6.0704e-05, "MEAN_MOTION_DOT": 4.31e-06, "MEAN_MOTION_DDOT": 0}, "tle": {"line1": "1 51444U 22008A   25350.60419590  .00000431  00000+0  60704-4 0  9997", "line2": "2 51444  97.8811 171.8695 0001450  89.7047 270.4333 14.82147873209543"}}, "geometry": {"type": "Point", "coordinates": [-3.036995875479823, 31.13707422737716]}}, {"type": "Feature", "properties": {"norad_id": 52912, "name": "GAOFEN-12 03", "group": "resource", "lat": 26.53319186977314, "lon": -125.79469315603804, "alt_km": 628.2594255075837, "timestamp": "2025-12-16T21:38:56.827594+00:00", "meta": {"OBJECT_NAME": "GAOFEN-12 03", "OBJECT_ID": "2022-069A", "EPOCH": "2025-12-16T06:55:16.088160", "MEAN_MOTION": 14.79618148, "ECCENTRICITY": 0.00021248, "INCLINATION": 97.8484, "RA_OF_ASC_NODE": 237.5552, "ARG_OF_PERICENTER": 56.3288, "MEAN_ANOMALY": 303.8126, "EPHEMERIS_TYPE": 0, "CLASSIFICATION_TYPE": "U", "NORAD_CAT_ID": 52912, "ELEMENT_SET_NO": 999, "REV_AT_EPOCH": 18756, "BSTAR": 0.00011228451, "MEAN_MOTION_DOT": 7.91e-06, "MEAN_MOTION_DDOT": 0}, "tle": {"line1": "1 52912U 22069A   25350.28838065  .00000791  00000+0  11228-3 0  9996", "line2": "2 52912  97.8484 237.5552 0002124  56.3288 303.8126 14.79618148187560"}}, "geometry": {"type": "Point", "coordinates": [-125.79469315603804, 26.53319186977314]}}, {"type": "Feature", "properties": {"norad_id": 54754, "name": "SWOT", "group": "resource", "lat": -71.00389365332873, "lon": 141.05157361582047, "alt_km": 900.5682560111982, "timestamp": "2025-12-16T21:38:56.827604+00:00", "meta": {"OBJECT_NAME": "SWOT", "OBJECT_ID": "2022-173A", "EPOCH": "2025-12-16T08:25:42.374496", "MEAN_MOTION": 14.00167442, "ECCENTRICITY": 3.572e-05, "INCLINATION": 77.6107, "RA_OF_ASC_NODE": 282.1146, "ARG_OF_PERICENTER": 103.1345, "MEAN_ANOMALY": 256.9846, "EPHEMERIS_TYPE": 0, "CLASSIFICATION_TYPE": "U", "NORAD_CAT_ID": 54754, "ELEMENT_SET_NO": 999, "REV_AT_EPOCH": 15356, "BSTAR": 6.5695106e-05, "MEAN_MOTION_DOT": 9.4e-07, "MEAN_MOTION_DDOT": 0}, "tle": {"line1": "1 54754U 22173A   25350.35118489  .00000094  00000+0  65695-4 0  9991", "line2": "2 54754  77.6107 282.1146 0000357 103.1345 256.9846 14.00167442153560"}}, "geometry": {"type": "Point", "coordinates": [141.05157361582047, -71.00389365332873]}}, {"type": "Feature", "properties": {"norad_id": 57654, "name": "GAOFEN-12 04", "group": "resource", "lat": -17.867789243488332, "lon": 84.02625090713641, "alt_km": 635.7685887824155, "timestamp": "2025-12-16T21:38:56.827615+00:00", "meta": {"OBJECT_NAME": "GAOFEN-12 04", "OBJECT_ID": "2023-123A", "EPOCH": "2025-12-16T07:46:26.760576", "MEAN_MOTION": 14.79710775, "ECCENTRICITY": 0.00012736, "INCLINATION": 97.9123, "RA_OF_ASC_NODE": 266.0266, "ARG_OF_PERICENTER": 74.5538, "MEAN_ANOMALY": 285.5815, "EPHEMERIS_TYPE": 0, "CLASSIFICATION_TYPE": "U", "NORAD_CAT_ID": 57654, "ELEMENT_SET_NO": 999, "REV_AT_EPOCH": 12558, "BSTAR": 0.00017870877, "MEAN_MOTION_DOT": 1.291e-05, "MEAN_MOTION_DDOT": 0}, "tle": {"line1": "1 57654U 23123A   25350.32392084  .00001291  00000+0  17871-3 0  9993", "line2": "2 57654  97.9123 266.0266 0001273  74.5538 285.5815 14.79710775125586"}}, "geometry": {"type": "Point", "coordinates": [84.02625090713641, -17.867789243488332]}}, {"type": "Feature", "properties": {"norad_id": 59065, "name": "PARS 1", "group": "resource", "lat": 70.41131043082075, "lon": -59.691865176033346, "alt_km": 427.9313996108731, "timestamp": "2025-12-16T21:38:56.827625+00:00", "meta": {"OBJECT_NAME": "PARS 1", "OBJECT_ID": "2024-039Q", "EPOCH": "2025-12-16T08:52:19.791264", "MEAN_MOTION": 15.41058024, "ECCENTRICITY": 0.00123551, "INCLINATION": 97.4631, "RA_OF_ASC_NODE": 321.3798, "ARG_OF_PERICENTER": 61.3658, "MEAN_ANOMALY": 298.883, "EPHEMERIS_TYPE": 0, "CLASSIFICATION_TYPE": "U", "NORAD_CAT_ID": 59065, "ELEMENT_SET_NO": 999, "REV_AT_EPOCH": 10044, "BSTAR": 0.00022854658, "MEAN_MOTION_DOT": 9.379e-05, "MEAN_MOTION_DDOT": 0}, "tle": {"line1": "1 59065U 24039Q   25350.36967351  .00009379  00000+0  22855-3 0  9990", "line2": "2 59065  97.4631 321.3798 0012355  61.3658 298.8830 15.41058024100442"}}, "geometry": {"type": "Point", "coordinates": [-59.691865176033346, 70.41131043082075]}}, {"type": "Feature", "properties": {"norad_id": 59371, "name": "RESURS-P 4", "group": "resource", "lat": 77.93910516411754, "lon": -99.44994140008352, "alt_km": 461.45665585016013, "timestamp": "2025-12-16T21:38:56.827635+00:00", "meta": {"OBJECT_NAME": "RESURS-P 4", "OBJECT_ID": "2024-061A", "EPOCH": "2025-12-16T08:45:36.112320", "MEAN_MOTION": 15.32115086, "ECCENTRICITY": 0.0001243, "INCLINATION": 97.2544, "RA_OF_ASC_NODE": 296.6206, "ARG_OF_PERICENTER": 55.3283, "MEAN_ANOMALY": 304.8077, "EPHEMERIS_TYPE": 0, "CLASSIFICATION_TYPE": "U", "NORAD_CAT_ID": 59371, "ELEMENT_SET_NO": 999, "REV_AT_EPOCH": 9576, "BSTAR": 0.0001098189, "MEAN_MOTION_DOT": 3.329e-05, "MEAN_MOTION_DDOT": 0}, "tle": {"line1": "1 59371U 24061A   25350.36500130  .00003329  00000+0  10982-3 0  9990", "line2": "2 59371  97.2544 296.6206 0001243  55.3283 304.8077 15.32115086 95763"}}, "geometry": {"type": "Point", "coordinates": [-99.44994140008352, 77.93910516411754]}}, {"type": "Feature", "properties": {"norad_id": 59625, "name": "LEGION 1", "group": "resource", "lat": 70.5970140025913, "lon": 43.47274095060575, "alt_km": 511.30517948582565, "timestamp": "2025-12-16T21:38:56.827646+00:00", "meta": {"OBJECT_NAME": "LEGION 1", "OBJECT_ID": "2024-081A", "EPOCH": "2025-12-16T07:04:49.061856", "MEAN_MOTION": 15.1651651, "ECCENTRICITY": 0.00037795, "INCLINATION": 97.5215, "RA_OF_ASC_NODE": 64.9032, "ARG_OF_PERICENTER": 301.9138, "MEAN_ANOMALY": 58.1727, "EPHEMERIS_TYPE": 0, "CLASSIFICATION_TYPE": "U", "NORAD_CAT_ID": 59625, "ELEMENT_SET_NO": 999, "REV_AT_EPOCH": 8981, "BSTAR": 0.00021450783, "MEAN_MOTION_DOT": 4.114e-05, "MEAN_MOTION_DDOT": 0}, "tle": {"line1": "1 59625U 24081A   25350.29501229  .00004114  00000+0  21451-3 0  9992", "line2": "2 59625  97.5215  64.9032 0003779 301.9138  58.1727 15.16516510 89810"}}, "geometry": {"type": "Point", "coordinates": [43.47274095060575, 70.5970140025913]}}, {"type": "Feature", "properties": {"norad_id": 59626, "name": "LEGION 2", "group": "resource", "lat": -70.57373559787817, "lon": -136.41072601389962, "alt_km": 520.0989122617902, "timestamp": "2025-12-16T21:38:56.827656+00:00", "meta": {"OBJECT_NAME": "LEGION 2", "OBJECT_ID": "2024-081B", "EPOCH": "2025-12-16T06:17:19.326336", "MEAN_MOTION": 15.16529259, "ECCENTRICITY": 0.00056235, "INCLINATION": 97.5218, "RA_OF_ASC_NODE": 64.9579, "ARG_OF_PERICENTER": 278.6226, "MEAN_ANOMALY": 81.437, "EPHEMERIS_TYPE": 0, "CLASSIFICATION_TYPE": "U", "NORAD_CAT_ID": 59626, "ELEMENT_SET_NO": 999, "REV_AT_EPOCH": 8981, "BSTAR": 0.00018416434, "MEAN_MOTION_DOT": 3.524e-05, "MEAN_MOTION_DDOT": 0}, "tle": {"line1": "1 59626U 24081B   25350.26202924  .00003524  00000+0  18416-3 0  9991", "line2": "2 59626  97.5218  64.9579 0005623 278.6226  81.4370 15.16529259 89815"}}, "geometry": {"type": "Point", "coordinates": [-136.41072601389962, -70.57373559787817]}}, {"type": "Feature", "properties": {"norad_id": 60182, "name": "ALOS-4 (DAICHI-4)", "group": "resource", "lat": 73.05180521535993, "lon": 58.49862851492605, "alt_km": 623.0654938636371, "timestamp": "2025-12-16T21:38:56.827666+00:00", "meta": {"OBJECT_NAME": "ALOS-4 (DAICHI-4)", "OBJECT_ID": "2024-123A", "EPOCH": "2025-12-16T08:19:33.890592", "MEAN_MOTION": 14.79475317, "ECCENTRICITY": 0.00013958, "INCLINATION": 97.9225, "RA_OF_ASC_NODE": 85.1427, "ARG_OF_PERICENTER": 99.6272, "MEAN_ANOMALY": 260.5097, "EPHEMERIS_TYPE": 0, "CLASSIFICATION_TYPE": "U", "NORAD_CAT_ID": 60182, "ELEMENT_SET_NO": 999, "REV_AT_EPOCH": 7884, "BSTAR": 0.00026776971, "MEAN_MOTION_DOT": 1.949e-05, "MEAN_MOTION_DDOT": 0}, "tle": {"line1": "1 60182U 24123A   25350.34692003  .00001949  00000+0  26777-3 0  9995", "line2": "2 60182  97.9225  85.1427 0001395  99.6272 260.5097 14.79475317 78847"}}, "geometry": {"type": "Point", "coordinates": [58.49862851492605, 73.05180521535993]}}, {"type": "Feature", "properties": {"norad_id": 60452, "name": "LEGION 3", "group": "resource", "lat": -22.259286397213447, "lon": -96.36031615613798, "alt_km": 523.8466546062427, "timestamp": "2025-12-16T21:38:56.827677+00:00", "meta": {"OBJECT_NAME": "LEGION 3", "OBJECT_ID": "2024-146A", "EPOCH": "2025-12-16T05:58:30.302976", "MEAN_MOTION": 15.15801065, "ECCENTRICITY": 0.0015289, "INCLINATION": 45.0022, "RA_OF_ASC_NODE": 291.3194, "ARG_OF_PERICENTER": 217.6692, "MEAN_ANOMALY": 142.3117, "EPHEMERIS_TYPE": 0, "CLASSIFICATION_TYPE": "U", "NORAD_CAT_ID": 60452, "ELEMENT_SET_NO": 999, "REV_AT_EPOCH": 7426, "BSTAR": 0.00023231837, "MEAN_MOTION_DOT": 4.26e-05, "MEAN_MOTION_DDOT": 0}, "tle": {"line1": "1 60452U 24146A   25350.24896184  .00004260  00000+0  23232-3 0  9997", "line2": "2 60452  45.0022 291.3194 0015289 217.6692 142.3117 15.15801065 74269"}}, "geometry": {"type": "Point", "coordinates": [-96.36031615613798, -22.259286397213447]}}]}